NORAD_CAT_ID,OBJECT_NAME,OBJECT_TYPE,EPOCH,MEAN_MOTION,ECCENTRICITY,INCLINATION,RA_OF_ASC_NODE,ARG_OF_PERICENTER,MEAN_ANOMALY,BSTAR,MEAN_MOTION_DOT,MEAN_MOTION_DDOT,TLE_LINE0,TLE_LINE1,TLE_LINE2,SEMIMAJOR_AXIS,PERIOD,APOGEE,PERIGEE,DECAYED
52838.0,STARLINK-4092,PAYLOAD,2023-03-19 14:40:46,15.08849864,0.0001287,53.2147,229.6994,78.0183,282.0954,0.00049388,7.583e-05,0.0,0 STARLINK-4092,1 52838U 22062J   23078.61165068  .00007583  00000-0  49388-3 0  9999,2 52838  53.2147 229.6994 0001287  78.0183 282.0954 15.08849864 41824,6917.85,95.437,540.606,538.825,0.0
52838.0,STARLINK-4092,PAYLOAD,2023-03-19 19:26:55,15.08856768,0.0001308,53.2149,228.807,76.875,283.2388,0.00075855,0.0001181,0.0,0 STARLINK-4092,1 52838U 22062J   23078.81036862  .00011810  00000-0  75855-3 0  9996,2 52838  53.2149 228.8070 0001308  76.8750 283.2388 15.08856768 42345,6917.829,95.436,540.599,538.789,0.0
52838.0,STARLINK-4092,PAYLOAD,2023-03-20 06:34:38,15.08837243,0.0001321,53.2149,226.7253,78.5463,281.5677,0.00011459,1.536e-05,0.0,0 STARLINK-4092,1 52838U 22062J   23079.27405241  .00001536  00000-0  11459-3 0  9992,2 52838  53.2149 226.7253 0001321  78.5463 281.5677 15.08837243 42417,6917.889,95.438,540.668,538.84,0.0
52838.0,STARLINK-4092,PAYLOAD,2023-03-20 12:56:10,15.08849642,0.0001291,53.2153,225.5362,79.8398,280.274,0.0013199,0.00020786,0.0,0 STARLINK-4092,1 52838U 22062J   23079.53901175  .00020786  00000-0  13199-2 0  9998,2 52838  53.2153 225.5362 0001291  79.8398 280.2740 15.08849642 41969,6917.851,95.437,540.609,538.823,0.0
52838.0,STARLINK-4092,PAYLOAD,2023-03-20 17:42:19,15.088614,0.000131,53.2152,224.6436,79.4432,280.6708,0.0019463,0.00030841,0.0,0 STARLINK-4092,1 52838U 22062J   23079.73772933  .00030841  00000-0  19463-2 0  9991,2 52838  53.2152 224.6436 0001310  79.4432 280.6708 15.08861400 41994,6917.815,95.436,540.586,538.774,0.0
52838.0,STARLINK-4092,PAYLOAD,2023-03-20 22:28:28,15.08874103,0.0001318,53.2154,223.7515,79.3779,280.7362,0.0022649,0.00035976,0.0,0 STARLINK-4092,1 52838U 22062J   23079.93644622  .00035976  00000-0  22649-2 0  9990,2 52838  53.2154 223.7515 0001318  79.3779 280.7362 15.08874103 42515,6917.776,95.435,540.553,538.729,0.0
52838.0,STARLINK-4092,PAYLOAD,2023-03-21 12:46:57,15.08853406,0.0001434,53.2159,221.075,93.8578,266.2579,0.0010095,0.00015821,0.0,0 STARLINK-4092,1 52838U 22062J   23080.53260811  .00015821  00000-0  10095-2 0  9991,2 52838  53.2159 221.0750 0001434  93.8578 266.2579 15.08853406 42601,6917.839,95.437,540.696,538.712,0.0
52838.0,STARLINK-4092,PAYLOAD,2023-03-21 20:43:52,15.08870991,0.0001323,53.2161,219.5881,95.467,264.6473,0.0021647,0.00034361,0.0,0 STARLINK-4092,1 52838U 22062J   23080.86380462  .00034361  00000-0  21647-2 0  9997,2 52838  53.2161 219.5881 0001323  95.4670 264.6473 15.08870991 42163,6917.786,95.436,540.566,538.735,0.0
52838.0,STARLINK-4092,PAYLOAD,2023-03-22 04:40:48,15.08841427,0.0001241,53.2166,218.1013,111.2642,248.8483,0.00042674,6.51e-05,0.0,0 STARLINK-4092,1 52838U 22062J   23081.19500596  .00006510  00000-0  42674-3 0  9995,2 52838  53.2166 218.1013 0001241 111.2642 248.8483 15.08841427 42702,6917.876,95.437,540.6,538.883,0.0
52838.0,STARLINK-4092,PAYLOAD,2023-03-22 15:48:30,15.08847243,0.0001144,53.2169,216.0209,100.0053,260.1068,0.0017754,0.00028086,0.0,0 STARLINK-4092,1 52838U 22062J   23081.65868977  .00028086  00000-0  17754-2 0  9998,2 52838  53.2169 216.0209 0001144 100.0053 260.1068 15.08847243 42284,6917.858,95.437,540.515,538.932,0.0
52838.0,STARLINK-4092,PAYLOAD,2023-03-23 12:28:31,15.0884087,0.0001131,53.2169,212.1556,84.9507,275.1614,0.0013052,0.00020546,0.0,0 STARLINK-4092,1 52838U 22062J   23082.51981372  .00020546  00000-0  13052-2 0  9999,2 52838  53.2169 212.1556 0001131  84.9507 275.1614 15.08840870 42907,6917.878,95.437,540.525,538.96,0.0
52838.0,STARLINK-4092,PAYLOAD,2023-03-23 14:03:54,15.0884801,0.0001158,53.2164,211.8585,86.8886,273.2239,0.0019416,0.00030754,0.0,0 STARLINK-4092,1 52838U 22062J   23082.58605322  .00030754  00000-0  19416-2 0  9996,2 52838  53.2164 211.8585 0001158  86.8886 273.2239 15.08848010 42423,6917.856,95.437,540.522,538.92,0.0
52838.0,STARLINK-4092,PAYLOAD,2023-03-24 01:11:36,15.08876134,0.0001164,53.2156,209.7777,98.1539,261.9585,0.0022424,0.00035616,0.0,0 STARLINK-4092,1 52838U 22062J   23083.04972686  .00035616  00000-0  22424-2 0  9993,2 52838  53.2156 209.7777 0001164  98.1539 261.9585 15.08876134 42988,6917.77,95.435,540.44,538.83,0.0
52838.0,STARLINK-4092,PAYLOAD,2023-03-24 13:54:39,15.0892363,0.0001252,53.216,207.4004,95.6489,264.4646,0.0026326,0.00041956,0.0,0 STARLINK-4092,1 52838U 22062J   23083.57962521  .00041956  00000-0  26326-2 0  9997,2 52838  53.2160 207.4004 0001252  95.6489 264.4646 15.08923630 42570,6917.625,95.432,540.356,538.624,0.0
52838.0,STARLINK-4092,PAYLOAD,2023-03-24 15:30:02,15.08936314,0.0001249,53.2162,207.1026,94.6078,265.5057,0.0031193,0.00049838,0.0,0 STARLINK-4092,1 52838U 22062J   23083.64586081  .00049838  00000-0  31193-2 0  9993,2 52838  53.2162 207.1026 0001249  94.6078 265.5057 15.08936314 43079,6917.586,95.431,540.315,538.587,0.0
52838.0,STARLINK-4092,PAYLOAD,2023-03-24 17:05:25,15.08946936,0.0001268,53.2158,206.8059,96.5282,263.5854,0.0033038,0.00052841,0.0,0 STARLINK-4092,1 52838U 22062J   23083.71209565  .00052841  00000-0  33038-2 0  9998,2 52838  53.2158 206.8059 0001268  96.5282 263.5854 15.08946936 42595,6917.554,95.431,540.296,538.541,0.0
52838.0,STARLINK-4092,PAYLOAD,2023-03-25 01:02:21,15.08865202,0.0001857,53.2166,205.319,73.0729,287.0466,-0.00065401,-0.00010689,0.0,0 STARLINK-4092,1 52838U 22062J   23084.04329881 -.00010689  00000-0 -65401-3 0  9995,2 52838  53.2166 205.3190 0001857  73.0729 287.0466 15.08865202 43131,6917.803,95.436,540.953,538.384,0.0
52838.0,STARLINK-4092,PAYLOAD,2023-03-25 12:10:06,15.08717246,0.0001078,53.215,203.2371,132.1966,227.9118,-0.00021888,-3.758e-05,0.0,0 STARLINK-4092,1 52838U 22062J   23084.50701825 -.00003758  00000-0 -21888-3 0  9998,2 52838  53.2150 203.2371 0001078 132.1966 227.9118 15.08717246 43206,6918.256,95.445,540.866,539.375,0.0
52838.0,STARLINK-4092,PAYLOAD,2023-03-25 15:20:53,15.08714693,0.0001106,53.215,202.6424,91.9957,268.1162,0.00093733,0.0001461,0.0,0 STARLINK-4092,1 52838U 22062J   23084.63951102  .00014610  00000-0  93733-3 0  9992,2 52838  53.2150 202.6424 0001106  91.9957 268.1162 15.08714693 42738,6918.263,95.445,540.894,539.363,0.0
52838.0,STARLINK-4092,PAYLOAD,2023-03-26 00:53:14,15.0878101,0.000105,53.2151,200.8595,87.9703,272.1409,0.0031338,0.00049859,0.0,0 STARLINK-4092,1 52838U 22062J   23085.03696832  .00049859  00000-0  31338-2 0  9998,2 52838  53.2151 200.8595 0001050  87.9703 272.1409 15.08781010 43287,6918.061,95.441,540.652,539.199,0.0
52838.0,STARLINK-4092,PAYLOAD,2023-03-26 15:11:41,15.08914105,0.0001133,53.2153,198.1833,63.5325,296.5783,0.0053293,0.00085735,0.0,0 STARLINK-4092,1 52838U 22062J   23085.63311705  .00085735  00000-0  53293-2 0  9994,2 52838  53.2153 198.1833 0001133  63.5325 296.5783 15.08914105 43373,6917.654,95.433,540.303,538.735,0.0
52838.0,STARLINK-4092,PAYLOAD,2023-03-26 19:57:49,15.08929567,0.0001234,53.2151,197.2911,64.2374,295.8745,0.0039852,0.00063868,0.0,0 STARLINK-4092,1 52838U 22062J   23085.83182702  .00063868  00000-0  39852-2 0  9997,2 52838  53.2151 197.2911 0001234  64.2374 295.8745 15.08929567 42919,6917.607,95.432,540.325,538.618,0.0
52838.0,STARLINK-4092,PAYLOAD,2023-03-27 13:27:04,15.08865618,0.0001302,53.2147,194.018,64.949,295.1637,0.0018739,0.00029682,0.0,0 STARLINK-4092,1 52838U 22062J   23086.56046759  .00029682  00000-0  18739-2 0  9996,2 52838  53.2147 194.0180 0001302  64.9490 295.1637 15.08865618 43515,6917.802,95.436,540.568,538.766,0.0
52838.0,STARLINK-4092,PAYLOAD,2023-03-28 00:34:46,15.08865355,0.0001382,53.2137,191.9395,57.6705,302.4421,0.0012765,0.000201,0.0,0 STARLINK-4092,1 52838U 22062J   23087.02414430  .00020100  00000-0  12765-2 0  9992,2 52838  53.2137 191.9395 0001382  57.6705 302.4421 15.08865355 43582,6917.803,95.436,540.624,538.712,0.0
52838.0,STARLINK-4092,PAYLOAD,2023-03-28 13:17:50,15.08853699,0.0001918,53.2177,189.5506,131.2748,228.841,0.0008502,0.00013274,0.0,0 STARLINK-4092,1 52838U 22062J   23087.55406140  .00013274  00000-0  85020-3 0  9998,2 52838  53.2177 189.5506 0001918 131.2748 228.8410 15.08853699 43660,6917.839,95.437,541.03,538.377,0.0
52838.0,STARLINK-4092,PAYLOAD,2023-03-29 13:08:37,15.08855595,0.0001462,53.2168,185.0974,95.8904,264.2255,0.00050569,7.773e-05,0.0,0 STARLINK-4092,1 52838U 22062J   23088.54765885  .00007773  00000-0  50569-3 0  9999,2 52838  53.2168 185.0974 0001462  95.8904 264.2255 15.08855595 43818,6917.833,95.437,540.709,538.686,0.0
52838.0,STARLINK-4092,PAYLOAD,2023-03-30 06:37:52,15.08842347,0.0001338,53.2166,181.825,106.9924,253.1215,7.4667e-05,9.01e-06,0.0,0 STARLINK-4092,1 52838U 22062J   23089.27630038  .00000901  00000-0  74667-4 0  9993,2 52838  53.2166 181.8250 0001338 106.9924 253.1215 15.08842347 43921,6917.873,95.437,540.664,538.813,0.0
52838.0,STARLINK-4092,PAYLOAD,2023-03-30 12:59:24,15.08852993,0.0001339,53.2165,180.6384,100.8711,259.2432,0.00032986,4.968e-05,0.0,0 STARLINK-4092,1 52838U 22062J   23089.54125781  .00004968  00000-0  32986-3 0  9991,2 52838  53.2165 180.6384 0001339 100.8711 259.2432 15.08852993 43963,6917.841,95.437,540.632,538.779,0.0
52838.0,STARLINK-4092,PAYLOAD,2023-03-31 06:28:39,15.08833522,0.0001229,53.217,177.367,74.8012,285.3116,1.2368e-05,-9.1e-07,0.0,0 STARLINK-4092,1 52838U 22062J   23090.26990092 -.00000091  00000-0  12368-4 0  9994,2 52838  53.2170 177.3670 0001229  74.8012 285.3116 15.08833522 44071,6917.9,95.438,540.615,538.915,0.0
52838.0,STARLINK-4092,PAYLOAD,2023-03-31 16:00:57,15.08859761,0.0001164,53.216,175.5797,95.7606,264.3518,0.0010822,0.00016986,0.0,0 STARLINK-4092,1 52838U 22062J   23090.66733621  .00016986  00000-0  10822-2 0  9991,2 52838  53.2160 175.5797 0001164  95.7606 264.3518 15.08859761 44132,6917.82,95.436,540.49,538.88,0.0
